KUIPER-00104            
1 65142U 25171L   25298.83336806  .00049420  00000+0  17655-2 0  9991
2 65142  51.8823  41.5784 0005794  31.9562  49.7681 15.28340250  5816
KUIPER-00105            
1 65143U 25171M   25298.83336806 -.00901136  00000+0 -64597-1 0  9991
2 65143  51.8859  44.1233 0009993  10.7815 156.2281 15.06714683  5467
KUIPER-00106            
1 65144U 25171N   25298.83336806 -.00712226  00000+0 -66915-1 0  9998
2 65144  51.9125  47.2314 0009313  10.4458  30.5826 14.95896375  5550
KUIPER-00107            
1 65145U 25171P   25298.77794815  .00071828  00000+0  18888-2 0  9991
2 65145  51.8752  41.3367 0004892  34.5869 325.5435 15.37914353 12824
KUIPER-00108            
1 65146U 25171Q   25298.83336806 -.00286412  00000+0 -13031-1 0  9994
2 65146  51.8827  42.1348 0007287  39.8383 106.3509 15.21490679  4401
KUIPER-00109            
1 65147U 25171R   25298.83336806  .00039302  00000+0  12355-2 0  9996
2 65147  51.8770  41.1103 0008808  28.8567 268.8767 15.32561246  5771
KUIPER-00110            
1 65148U 25171S   25298.83336806 -.00798711  00000+0 -68484-1 0  9998
2 65148  51.9055  45.6143 0010651  19.7197 115.6968 14.99683741  5385
KUIPER-00111            
1 65149U 25171T   25298.83336806  .00005129  00000+0  64998-3 0  9999
2 65149  51.9213  49.4502 0009306  37.7168  99.4164 14.83144612  5093
